      2.10          N: GNSS NAV DATA                        RINEX VERSION / TYPE
fic2rin                                 07/09/2020 00:17:42 PGM / RUN BY / DATE
                                                            END OF HEADER
 4 20  7  8  3 29 36.0-1.120339147747e-04-4.661160346586e-12 0.000000000000e+00
    4.100000000000e+01 1.318750000000e+01 4.780199114480e-09 2.004230164917e+00
    7.543712854385e-07 7.908394327387e-04 8.665025234222e-06 5.153659950256e+03
    2.717760000000e+05-6.519258022308e-08-1.841233361274e+00 1.117587089539e-08
    9.596816916231e-01 2.136875000000e+02-2.640212827485e+00-8.006762085208e-09
    5.339508126231e-10 1.000000000000e+00 2.113000000000e+03 0.000000000000e+00
    2.400000000000e+00 0.000000000000e+00-4.190951585770e-09 5.530000000000e+02
    2.646000000000e+05 4.000000000000e+00
16 20  7  8  1 59 44.0-1.799417659640e-04-4.774847184308e-12 0.000000000000e+00
    1.000000000000e+01 4.331250000000e+01 3.751941997730e-09 3.018000288649e+00
    2.136453986168e-06 1.144548086450e-02 1.071393489838e-05 5.153792453766e+03
    2.663840000000e+05-2.793967723846e-08 3.099794995018e-01-8.940696716309e-08
    9.783357316330e-01 1.813125000000e+02 6.342022108049e-01-7.432095290886e-09
   -3.807301446530e-10 1.000000000000e+00 2.113000000000e+03 0.000000000000e+00
    2.400000000000e+00 0.000000000000e+00-1.071020960808e-08 1.000000000000e+01
    2.653200000000e+05 4.000000000000e+00
24 20  7  8  3 59 44.0-1.535611227155e-05-4.547473508865e-13 0.000000000000e+00
    3.000000000000e+00-3.000000000000e+00 5.683451024262e-09 1.337358943854e+00
   -1.303851604462e-08 9.763038717210e-03 5.377456545830e-06 5.153637863159e+03
    2.735840000000e+05-9.313225746155e-08-8.880886488684e-01 1.788139343262e-07
    9.359914010560e-01 2.641250000000e+02 6.680852645929e-01-8.633573908722e-09
   -2.614394614315e-10 1.000000000000e+00 2.113000000000e+03 0.000000000000e+00
    2.400000000000e+00 0.000000000000e+00 2.793967723846e-09 3.000000000000e+00
    2.664000000000e+05 4.000000000000e+00
16 20  7  8  3 59 44.0-1.799762248993e-04-4.774847184308e-12 0.000000000000e+00
    1.100000000000e+01 3.793750000000e+01 3.813730285746e-09-2.215096208220e+00
    1.968815922737e-06 1.144618017133e-02 1.071207225323e-05 5.153791135788e+03
    2.735840000000e+05 1.676380634308e-08 3.099257314107e-01-1.043081283569e-07
    9.783330310863e-01 1.821562500000e+02 6.342170696638e-01-7.454953385875e-09
   -3.546576300567e-10 1.000000000000e+00 2.113000000000e+03 0.000000000000e+00
    2.400000000000e+00 0.000000000000e+00-1.071020960808e-08 1.100000000000e+01
    2.664000000000e+05 4.000000000000e+00
 2 20  7  8  4  0  0.0-4.839380271733e-04-5.798028723802e-12 0.000000000000e+00
    7.600000000000e+01-3.125000000000e+01 4.744840498795e-09 1.334386523995e+00
   -1.905485987663e-06 1.972750015557e-02 1.268461346626e-06 5.153731304169e+03
    2.736000000000e+05-2.514570951462e-07 2.245892832554e+00-4.917383193970e-07
    9.595877123028e-01 3.540000000000e+02-1.619524286201e+00-8.632502435519e-09
    4.607334771129e-11 1.000000000000e+00 2.113000000000e+03 0.000000000000e+00
    2.400000000000e+00 0.000000000000e+00-1.769512891769e-08 7.600000000000e+01
    2.664000000000e+05 4.000000000000e+00
 1 20  7  8  4  0  0.0 2.278760075569e-05 4.888534022029e-12 0.000000000000e+00
    4.800000000000e+01-3.406250000000e+01 4.213746948045e-09 1.086717701354e+00
   -1.881271600723e-06 1.003453636076e-02 2.061948180199e-06 5.153707786560e+03
    2.736000000000e+05-7.823109626770e-08 2.323057783561e+00 7.636845111847e-08
    9.806769228216e-01 3.505000000000e+02 8.030545883670e-01-8.298917111780e-09
   -1.089331089298e-10 1.000000000000e+00 2.113000000000e+03 0.000000000000e+00
    2.400000000000e+00 0.000000000000e+00 5.122274160385e-09 4.800000000000e+01
    2.664000000000e+05 4.000000000000e+00
 5 20  7  8  4  0  0.0-1.619802787900e-05-7.958078640513e-13 0.000000000000e+00
    3.900000000000e+01-1.195625000000e+02 4.447685263944e-09-2.264697790119e+00
   -6.498768925667e-06 5.984005983919e-03 9.370967745781e-06 5.153703025818e+03
    2.736000000000e+05 8.381903171539e-08-2.952628925303e+00-3.911554813385e-08
    9.534069594896e-01 1.901875000000e+02 8.184018644426e-01-7.944973797192e-09
    9.000374901741e-11 1.000000000000e+00 2.113000000000e+03 0.000000000000e+00
    2.400000000000e+00 0.000000000000e+00-1.117587089539e-08 3.900000000000e+01
    2.664000000000e+05 4.000000000000e+00
 3 20  7  8  4  0  0.0-2.330015413463e-04-1.170974428533e-11 0.000000000000e+00
    9.000000000000e+01-9.621875000000e+01 4.254820087478e-09 3.185011991962e-02
   -5.057081580162e-06 3.036494366825e-03 9.134411811829e-06 5.153798231125e+03
    2.736000000000e+05 3.725290298462e-09-2.920183778084e+00 3.352761268616e-08
    9.664935063340e-01 2.120000000000e+02 7.789456252748e-01-7.899971922683e-09
    7.286017777600e-11 1.000000000000e+00 2.113000000000e+03 0.000000000000e+00
    2.400000000000e+00 0.000000000000e+00 1.862645149231e-09 9.000000000000e+01
    2.664000000000e+05 4.000000000000e+00
 7 20  7  8  4  0  0.0-3.222133964300e-04-8.753886504564e-12 0.000000000000e+00
    6.200000000000e+01-2.187500000000e+00 5.255933216430e-09 3.502581312342e-01
    5.587935447693e-08 1.407784060575e-02 5.217269062996e-06 5.153647811890e+03
    2.736000000000e+05-3.911554813385e-08-8.152407369290e-01 1.341104507446e-07
    9.527578788299e-01 2.727187500000e+02-2.382691762139e+00-8.549641841186e-09
   -3.714440435639e-10 1.000000000000e+00 2.113000000000e+03 0.000000000000e+00
    2.400000000000e+00 0.000000000000e+00-1.117587089539e-08 6.200000000000e+01
    2.664000000000e+05 4.000000000000e+00
 6 20  7  8  4  0  0.0-3.000255674124e-04-5.343281372916e-12 0.000000000000e+00
    3.300000000000e+01-4.346875000000e+01 4.173388124081e-09 1.300828172189e+00
   -2.104789018631e-06 1.802056096494e-03 1.756474375725e-06 5.153569803238e+03
    2.736000000000e+05 6.519258022308e-08 2.314808703040e+00-1.024454832077e-07
    9.802213086892e-01 3.539062500000e+02-1.061869318022e+00-8.182126532698e-09
    2.321525272275e-11 1.000000000000e+00 2.113000000000e+03 0.000000000000e+00
    2.400000000000e+00 0.000000000000e+00 4.190951585770e-09 3.300000000000e+01
    2.664000000000e+05 4.000000000000e+00
 8 20  7  8  4  0  0.0-4.022195935249e-05-1.364242052659e-12 0.000000000000e+00
    2.600000000000e+01 1.087187500000e+02 4.108028258723e-09-2.915389182576e+00
    5.671754479408e-06 5.351914558560e-03 6.446614861488e-06 5.153692958832e+03
    2.736000000000e+05-4.470348358154e-08 1.252171562223e+00 7.450580596924e-09
    9.693557084819e-01 2.610937500000e+02-5.905382915474e-02-7.938544957976e-09
    2.092944322389e-10 1.000000000000e+00 2.113000000000e+03 0.000000000000e+00
    2.400000000000e+00 0.000000000000e+00 5.122274160385e-09 2.600000000000e+01
    2.664000000000e+05 4.000000000000e+00
 4 20  7  8  4  0  0.0-1.120422966778e-04-4.661160346586e-12 0.000000000000e+00
    4.200000000000e+01 1.118750000000e+01 4.750912180276e-09 2.269962798639e+00
    6.798654794693e-07 7.906755199656e-04 8.609145879745e-06 5.153660491943e+03
    2.736000000000e+05-6.146728992462e-08-1.841248029954e+00-2.980232238770e-08
    9.596827697937e-01 2.150625000000e+02-2.639897040525e+00-7.981403886080e-09
    5.453798601174e-10 1.000000000000e+00 2.113000000000e+03 0.000000000000e+00
    2.400000000000e+00 0.000000000000e+00-4.190951585770e-09 5.540000000000e+02
    2.664000000000e+05 4.000000000000e+00
21 20  7  8  4  0  0.0 2.103717997670e-05 4.547473508865e-12 0.000000000000e+00
    1.000000000000e+01-1.946875000000e+01 4.878774649119e-09-1.361562094001e+00
   -4.768371582031e-07 2.382016030606e-02 1.935288310051e-06 5.155107765198e+03
    2.736000000000e+05-4.414469003677e-07 2.247890473524e+00 4.209578037262e-07
    9.535755490949e-01 3.437812500000e+02-1.315220506545e+00-8.724291973208e-09
    1.128618440060e-10 1.000000000000e+00 2.113000000000e+03 0.000000000000e+00
    2.400000000000e+00 0.000000000000e+00-1.024454832077e-08 1.000000000000e+01
    2.664000000000e+05 4.000000000000e+00
14 20  7  8  4  0  0.0-2.779997885227e-07 2.842170943040e-12 0.000000000000e+00
    3.700000000000e+01 6.468750000000e+00 4.683766526247e-09 3.024387710825e+00
    3.408640623093e-07 1.155003299937e-02 8.402392268181e-06 5.153662403107e+03
    2.736000000000e+05 1.620501279831e-07-1.793226386414e+00-2.272427082062e-07
    9.600974529412e-01 2.143437500000e+02-1.910416012427e+00-7.784967132272e-09
    4.650193699233e-10 1.000000000000e+00 2.113000000000e+03 0.000000000000e+00
    2.400000000000e+00 0.000000000000e+00-9.778887033463e-09 3.700000000000e+01
    2.664000000000e+05 4.000000000000e+00
11 20  7  8  4  0  0.0-2.272748388350e-04 1.057287590811e-11 0.000000000000e+00
    2.700000000000e+01 4.481250000000e+01 5.833814430359e-09 5.710788229709e-01
    2.125278115273e-06 1.606951653957e-02 1.681968569756e-06 5.153715501785e+03
    2.736000000000e+05-7.450580596924e-08 1.845607503886e+00-2.030283212662e-07
    9.128266813639e-01 3.216875000000e+02 2.003426098327e+00-9.225741432019e-09
    1.417916204758e-10 1.000000000000e+00 2.113000000000e+03 0.000000000000e+00
    2.400000000000e+00 0.000000000000e+00-1.257285475731e-08 2.700000000000e+01
    2.664000000000e+05 4.000000000000e+00
12 20  7  8  4  0  0.0 9.654322639108e-05-4.888534022029e-12 0.000000000000e+00
    2.700000000000e+01 4.671875000000e+01 3.955164748487e-09-3.509248342051e-01
    2.397224307060e-06 7.980224560015e-03 1.087784767151e-05 5.153668659210e+03
    2.736000000000e+05-2.980232238770e-08 2.910809546787e-01 7.450580596924e-08
    9.781202320966e-01 1.789062500000e+02 1.164645008231e+00-7.760323248613e-09
   -5.121641908372e-10 1.000000000000e+00 2.113000000000e+03 0.000000000000e+00
    2.400000000000e+00 0.000000000000e+00-1.210719347000e-08 2.700000000000e+01
    2.664000000000e+05 4.000000000000e+00
